ATLAS CENTAUR 2         
1 00694U 63047A   26184.88930472  .00001240  00000+0  14052-3 0  9992
2 00694  30.3528 265.9910 0545763  24.8058 337.7783 14.12548431148061
THOR AGENA D R/B        
1 00733U 64002A   26185.04148022  .00000207  00000+0  91147-4 0  9992
2 00733  99.1152 204.6825 0031774 280.1598  79.6001 14.34072629254972
SL-3 R/B                
1 00877U 64053B   26184.75340386  .00000224  00000+0  67520-4 0  9998
2 00877  65.0779 350.9381 0080614 255.9129 103.3002 14.61434790283752
SL-8 R/B                
1 02802U 67045B   26185.24735120  .00000361  00000+0  10713-3 0  9994
2 02802  74.0109 130.3957 0063035 110.1212 250.6743 14.45691008105863
SL-8 R/B                
1 03230U 68040B   26185.14663968  .00002805  00000+0  20519-3 0  9995
2 03230  74.0304  75.6055 0025546 225.9153 133.9934 15.03899524107517
OAO 2                   
1 03597U 68110A   26185.09392028  .00000226  00000+0  66106-4 0  9997
2 03597  34.9946 335.2791 0005018  45.0751 315.0346 14.47358762 35970
ISIS 1                  
1 03669U 69009A   26184.83210997  .00000069  00000+0  45686-4 0  9995
2 03669  88.4441 142.5712 1706825 214.5974 133.1508 11.30435490361650
SERT 2                  
1 04327U 70009A   26185.28399110  .00000007  00000+0  65782-4 0  9995
2 04327  99.2840 122.0795 0004127 220.0413 295.2688 13.58740411795726
SL-3 R/B                
1 05118U 71028B   26185.19433345  .00074742  00000+0  57911-3 0  9996
2 05118  81.2320 267.0358 0014309 220.3445 139.6753 15.71435934  6913
ASTEX 1                 
1 05560U 71089A   26185.24567233  .00000539  00000+0  13671-3 0  9992
2 05560  92.7000 189.3494 0017527  55.9914 304.2954 14.50865568879200
SL-8 R/B                
1 05730U 71119B   26184.76529684  .00005310  00000+0  27223-3 0  9999
2 05730  73.8893 318.3831 0543317 261.0188  92.9123 14.39622591672183
OAO 3 (COPERNICUS)      
1 06153U 72065A   26185.21559198  .00000361  00000+0  78385-4 0  9991
2 06153  35.0069 353.3782 0006258  27.8979 138.5270 14.60070284863234
ATLAS CENTAUR R/B       
1 06155U 72065B   26184.82869740  .00001107  00000+0  15285-3 0  9994
2 06155  35.0029 344.9799 0034278 268.3429  91.3345 14.77952690858456
SL-8 R/B                
1 08459U 75112B   26184.38666504  .00000159  00000+0  60811-4 0  9995
2 08459  74.0593 166.0715 0016580 230.8240 129.1442 14.38253349648509
SL-3 R/B                
1 10114U 77057B   26185.21729013  .00014094  00000+0  26913-3 0  9991
2 10114  97.5846   2.5870 0006149 209.6877 150.4024 15.48226874686349
SEASAT 1                
1 10967U 78064A   26184.77071961  .00000274  00000+0  11483-3 0  9999
2 10967 108.0183   9.1014 0001346 244.6917 115.4090 14.46254803523296
SL-14 R/B               
1 11267U 79011B   26184.94175707  .00000621  00000+0  58548-4 0  9998
2 11267  82.5245 346.2523 0016780  33.8758 326.3530 14.92030298546113
SL-8 R/B                
1 11574U 79089B   26185.12797364  .00000228  00000+0  76919-4 0  9999
2 11574  74.0678 235.4974 0015546  13.3467 346.8097 14.42411382452896
SL-14 R/B               
1 11672U 80005B   26185.03141764  .00000549  00000+0  52811-4 0  9996
2 11672  82.5131 196.8615 0016906 131.6307 228.6364 14.91042672493821
SL-8 R/B                
1 12139U 81003B   26185.26532698  .00022774  00000+0  54515-3 0  9995
2 12139  82.9361 181.8987 0250632 131.6229 230.6776 15.14759367332301
SL-3 R/B                
1 12465U 81046B   26185.16487304  .00015642  00000+0  33411-3 0  9994
2 12465  81.2307 149.6117 0016616 338.5917  21.4630 15.44571243456395
SL-3 R/B                
1 12904U 81103B   26185.14336310  .00004828  00000+0  20746-3 0  9995
2 12904  81.1579  76.7114 0011537 252.3942 107.6031 15.22423109990947
SL-3 R/B                
1 13068U 82013B   26185.10956124  .00004826  00000+0  20336-3 0  9998
2 13068  81.1731  24.1916 0022546 144.2482 216.0265 15.22898331422066
SL-3 R/B                
1 13154U 82039B   26184.99216977  .00003759  00000+0  22401-3 0  9992
2 13154  81.1490  81.6716 0027571 297.7655  62.0776 15.10645760399195
SL-3 R/B                
1 13403U 82079B   26184.90415904  .00005693  00000+0  21894-3 0  9999
2 13403  81.1449  55.7118 0024754 130.1014 230.2395 15.25930920395411
SL-14 R/B               
1 13553U 82092B   26185.03092708  .00000437  00000+0  46281-4 0  9997
2 13553  82.5670  32.5404 0018748 275.7504 244.5970 14.86759195346215
SL-3 R/B                
1 13819U 83010B   26185.04360107  .00015900  00000+0  28518-3 0  9998
2 13819  81.0996 219.1982 0014279   4.4833 355.6539 15.49668366375942
SL-3 R/B                
1 14208U 83075B   26185.28085524  .00012778  00000+0  31148-3 0  9998
2 14208  97.6102 194.4866 0021198 166.7768 193.4038 15.40808447348095
COSMOS 1536             
1 14699U 84013A   26184.95853510  .00007687  00000+0  30397-3 0  9994
2 14699  82.5451 352.1366 0012958 229.4611 130.5499 15.25236330290330
SL-14 R/B               
1 14820U 84027B   26185.25028402  .00000509  00000+0  55311-4 0  9993
2 14820  82.5424 135.7164 0016702 311.0702  48.9071 14.86073126264941
